CCSDS_OEM_VERS = 1.0
CREATION_DATE  = 2017-05-11T11:20:39
ORIGINATOR     = GMAT USER

META_START
OBJECT_NAME          = MOPSSat_alt_35785_km_RAAN_90_136
OBJECT_ID            = SatId
CENTER_NAME          = Earth
REF_FRAME            = EME2000
TIME_SYSTEM          = UTC
START_TIME           = 2017-01-01T00:00:00.000
USEABLE_START_TIME   = 2017-01-01T00:00:00.000
USEABLE_STOP_TIME    = 2017-01-02T00:00:00.000
STOP_TIME            = 2017-01-02T00:00:00.000
INTERPOLATION        = Lagrange
INTERPOLATION_DEGREE = 7 
META_STOP


                                                                                   

2017-01-01T10:41:40.000  -9.136728315511131e+03  -5.782014954485227e+04   3.138639147847841e-01   1.972234488771480e+00  -5.237458221738668e-01  -7.754447978957470e-05
2017-01-01T10:41:50.000  -9.117005063084682e+03  -5.782538125819544e+04   3.130882252766272e-01   1.972415928485696e+00  -5.225968498085352e-01  -7.759342216028163e-05
2017-01-01T10:42:00.000  -9.097279998134743e+03  -5.783060148195959e+04   3.123120463286438e-01   1.972596956897571e+00  -5.214478967075568e-01  -7.764236631268880e-05
2017-01-01T10:42:10.000  -9.077553124752063e+03  -5.783581021634260e+04   3.115353779221995e-01   1.972777574100545e+00  -5.202989628321057e-01  -7.769131223580995e-05
2017-01-01T10:42:20.000  -9.057824447272687e+03  -5.784100746147781e+04   3.107582200484983e-01   1.972957780185618e+00  -5.191500481576552e-01  -7.774025991803073e-05
2017-01-01T10:42:30.000  -9.038093969962780e+03  -5.784619321751629e+04   3.099805726961336e-01   1.973137575244189e+00  -5.180011526556330e-01  -7.778920934789510e-05
2017-01-01T10:42:40.000  -9.018361697135801e+03  -5.785136748459606e+04   3.092024358557132e-01   1.973316959367006e+00  -5.168522763002437e-01  -7.783816051381316e-05
2017-01-01T10:42:50.000  -8.998627632698695e+03  -5.785653026296131e+04   3.084238095019649e-01   1.973495932648286e+00  -5.157034190420421e-01  -7.788711340519074e-05
2017-01-01T10:43:00.000  -8.978891780604521e+03  -5.786168155284342e+04   3.076446936115812e-01   1.973674495181594e+00  -5.145545808342932e-01  -7.793606801130290e-05
2017-01-01T10:43:10.000  -8.959154144749957e+03  -5.786682135448814e+04   3.068650881591852e-01   1.973852647060785e+00  -5.134057616269991e-01  -7.798502432154932e-05
2017-01-01T10:43:20.000  -8.939414729230662e+03  -5.787194966808738e+04   3.060849931273590e-01   1.974030388377644e+00  -5.122569613817803e-01  -7.803398232481844e-05
2017-01-01T10:43:30.000  -8.919673538151781e+03  -5.787706649383037e+04   3.053044084992187e-01   1.974207719223652e+00  -5.111081800608277e-01  -7.808294200995981e-05
2017-01-01T10:43:40.000  -8.899930575627803e+03  -5.788217183190292e+04   3.045233342583861e-01   1.974384639689968e+00  -5.099594176269018e-01  -7.813190336578386e-05
2017-01-01T10:43:50.000  -8.880185845972659e+03  -5.788726568243992e+04   3.037417703965646e-01   1.974561149865775e+00  -5.088106740543779e-01  -7.818086638059162e-05
2017-01-01T10:44:00.000  -8.860439353443810e+03  -5.789234804558997e+04   3.029597169033619e-01   1.974737249840530e+00  -5.076619493143695e-01  -7.822983104280835e-05
2017-01-01T10:44:10.000  -8.840691102343011e+03  -5.789741892148969e+04   3.021771737702905e-01   1.974912939703068e+00  -5.065132433805898e-01  -7.827879734073349e-05
2017-01-01T10:44:20.000  -8.820941096570717e+03  -5.790247831037838e+04   3.013941409731132e-01   1.975088219545570e+00  -5.053645562034285e-01  -7.832776526364673e-05
2017-01-01T10:44:30.000  -8.801189340071658e+03  -5.790752621248311e+04   3.006106184894928e-01   1.975263089459593e+00  -5.042158877358746e-01  -7.837673480070167e-05
2017-01-01T10:44:40.000  -8.781435836734161e+03  -5.791256262804515e+04   2.998266062950120e-01   1.975437549536976e+00  -5.030672379276562e-01  -7.842570594117644e-05
2017-01-01T10:44:50.000  -8.761680590645718e+03  -5.791758755725299e+04   2.990421043732587e-01   1.975611599867522e+00  -5.019186067401181e-01  -7.847467867383647e-05
2017-01-01T10:45:00.000  -8.741923605903317e+03  -5.792260100029238e+04   2.982571127083575e-01   1.975785240540739e+00  -5.007699941351763e-01  -7.852365298740864e-05
2017-01-01T10:45:10.000  -8.722164886613340e+03  -5.792760295734581e+04   2.974716312849430e-01   1.975958471645808e+00  -4.996214000753176e-01  -7.857262887057994e-05
2017-01-01T10:45:20.000  -8.702404437081777e+03  -5.793259342854581e+04   2.966856600957768e-01   1.976131293269982e+00  -4.984728245346422e-01  -7.862160631153145e-05
2017-01-01T10:45:30.000  -8.682642261558127e+03  -5.793757241403840e+04   2.958991991315139e-01   1.976303705500770e+00  -4.973242674839901e-01  -7.867058529856752e-05
2017-01-01T10:45:40.000  -8.662878364338156e+03  -5.794253991395739e+04   2.951122483848024e-01   1.976475708425055e+00  -4.961757288969124e-01  -7.871956581986316e-05
2017-01-01T10:45:50.000  -8.643112749310461e+03  -5.794749592853838e+04   2.943248078322293e-01   1.976647302133042e+00  -4.950272087233180e-01  -7.876854786458186e-05
2017-01-01T10:46:00.000  -8.623345420411059e+03  -5.795244045800444e+04   2.935368774524161e-01   1.976818486714292e+00  -4.938787069158943e-01  -7.881753142175488e-05
2017-01-01T10:46:10.000  -8.603576381506051e+03  -5.795737350259570e+04   2.927484572213535e-01   1.976989262258754e+00  -4.927302234232864e-01  -7.886651648056995e-05
2017-01-01T10:46:20.000  -8.583805636707093e+03  -5.796229506248928e+04   2.919595471249343e-01   1.977159628853989e+00  -4.915817582084378e-01  -7.891550302959506e-05
2017-01-01T10:46:30.000  -8.564033190111124e+03  -5.796720513786562e+04   2.911701471486199e-01   1.977329586587468e+00  -4.904333112334551e-01  -7.896449105741799e-05
2017-01-01T10:46:40.000  -8.544259045860339e+03  -5.797210372889305e+04   2.903802572798211e-01   1.977499135546039e+00  -4.892848824630986e-01  -7.901348055249952e-05
2017-01-01T10:46:50.000  -8.524483208119051e+03  -5.797699083573457e+04   2.895898775070047e-01   1.977668275816160e+00  -4.881364718634277e-01  -7.906247150322538e-05
2017-01-01T10:47:00.000  -8.504705681062549e+03  -5.798186645854972e+04   2.887990078192221e-01   1.977837007483964e+00  -4.869880794011599e-01  -7.911146389793917e-05
2017-01-01T10:47:10.000  -8.484926468853389e+03  -5.798673059750060e+04   2.880076482051648e-01   1.978005330635472e+00  -4.858397050422967e-01  -7.916045772499940e-05
2017-01-01T10:47:20.000  -8.465145575630473e+03  -5.799158325275519e+04   2.872157986527500e-01   1.978173245356699e+00  -4.846913487514802e-01  -7.920945297281225e-05
2017-01-01T10:47:30.000  -8.445363005485602e+03  -5.799642442449222e+04   2.864234591481525e-01   1.978340751733834e+00  -4.835430104906410e-01  -7.925844962988342e-05
2017-01-01T10:47:40.000  -8.425578762523653e+03  -5.800125411288689e+04   2.856306296782278e-01   1.978507849852731e+00  -4.823946902224885e-01  -7.930744768467184e-05
2017-01-01T10:47:50.000  -8.405792850601731e+03  -5.800607231817330e+04   2.848373102200170e-01   1.978674539801086e+00  -4.812463878953802e-01  -7.935644712622930e-05
2017-01-01T10:48:00.000  -8.386005273645196e+03  -5.801087904056848e+04   2.840435007534529e-01   1.978840821665794e+00  -4.800981034616559e-01  -7.940544794342385e-05
2017-01-01T10:48:10.000  -8.366216035528281e+03  -5.801567428030121e+04   2.832492012565643e-01   1.979006695533957e+00  -4.789498368707096e-01  -7.945445012523339e-05
2017-01-01T10:48:20.000  -8.346425140536734e+03  -5.802045803749980e+04   2.824544117240420e-01   1.979172161488994e+00  -4.778015880958354e-01  -7.950345365960543e-05
2017-01-01T10:48:30.000  -8.326632592905165e+03  -5.802523031230448e+04   2.816591321486770e-01   1.979337219614538e+00  -4.766533571073805e-01  -7.955245853459738e-05
2017-01-01T10:48:40.000  -8.306838396936459e+03  -5.802999110483826e+04   2.808633625261464e-01   1.979501869993416e+00  -4.755051438796762e-01  -7.960146473808261e-05
2017-01-01T10:48:50.000  -8.287042556685898e+03  -5.803474041528414e+04   2.800671028423622e-01   1.979666112710331e+00  -4.743569483727002e-01  -7.965047225852818e-05
2017-01-01T10:49:00.000  -8.267245076221794e+03  -5.803947824382127e+04   2.792703530839041e-01   1.979829947849652e+00  -4.732087705472098e-01  -7.969948108435353e-05
2017-01-01T10:49:10.000  -8.247445959565410e+03  -5.804420459063960e+04   2.784731132356138e-01   1.979993375495913e+00  -4.720606103612524e-01  -7.974849120407843e-05
2017-01-01T10:49:20.000  -8.227645210714158e+03  -5.804891945593364e+04   2.776753832814999e-01   1.980156395733602e+00  -4.709124677715184e-01  -7.979750260626835e-05
2017-01-01T10:49:30.000  -8.207842833652770e+03  -5.805362283990023e+04   2.768771632052121e-01   1.980319008647092e+00  -4.697643427339835e-01  -7.984651527950396e-05
2017-01-01T10:49:40.000  -8.188038832376988e+03  -5.805831474273316e+04   2.760784529909952e-01   1.980481214320440e+00  -4.686162352052829e-01  -7.989552921232336e-05
2017-01-01T10:49:50.000  -8.168233210904574e+03  -5.806299516461974e+04   2.752792526241090e-01   1.980643012837277e+00  -4.674681451433541e-01  -7.994454439319255e-05
2017-01-01T10:50:00.000  -8.148425973298733e+03  -5.806766410573607e+04   2.744795620918026e-01   1.980804404280647e+00  -4.663200725087882e-01  -7.999356081044968e-05
2017-01-01T10:50:10.000  -8.128617123607892e+03  -5.807232156626098e+04   2.736793813808722e-01   1.980965388733484e+00  -4.651720172613422e-01  -8.004257845245339e-05
2017-01-01T10:50:20.000  -8.108806666126881e+03  -5.807696754631577e+04   2.728787104882519e-01   1.981125966276531e+00  -4.640239793750653e-01  -8.009159730693780e-05
2017-01-01T10:50:30.000  -8.088994605080484e+03  -5.808160204603736e+04   2.720775494081901e-01   1.981286136990869e+00  -4.628759588199686e-01  -8.014061736179436e-05
2017-01-01T10:50:40.000  -8.069180944741089e+03  -5.808622506555113e+04   2.712758981370131e-01   1.981445900956978e+00  -4.617279555688426e-01  -8.018963860478101e-05
